[{"OBJECT_NAME":"STARLINK-34995","OBJECT_ID":"2025-184N","EPOCH":"2025-10-03T08:00:01.999872","MEAN_MOTION":15.21594618,"ECCENTRICITY":0.00022125,"INCLINATION":97.6043,"RA_OF_ASC_NODE":327.4738,"ARG_OF_PERICENTER":86.014,"MEAN_ANOMALY":69.8516,"EPHEMERIS_TYPE":0,"CLASSIFICATION_TYPE":"U","NORAD_CAT_ID":65285,"ELEMENT_SET_NO":999,"REV_AT_EPOCH":595,"BSTAR":-0.094000164,"MEAN_MOTION_DOT":-0.01922319,"MEAN_MOTION_DDOT":0},{"OBJECT_NAME":"STARLINK-35048","OBJECT_ID":"2025-184P","EPOCH":"2025-10-03T08:00:01.999872","MEAN_MOTION":15.2166694,"ECCENTRICITY":0.00021315,"INCLINATION":97.6045,"RA_OF_ASC_NODE":327.4944,"ARG_OF_PERICENTER":89.1419,"MEAN_ANOMALY":113.9681,"EPHEMERIS_TYPE":0,"CLASSIFICATION_TYPE":"U","NORAD_CAT_ID":65286,"ELEMENT_SET_NO":999,"REV_AT_EPOCH":595,"BSTAR":-0.093931665,"MEAN_MOTION_DOT":-0.01924739,"MEAN_MOTION_DDOT":0},{"OBJECT_NAME":"STARLINK-35007","OBJECT_ID":"2025-184Q","EPOCH":"2025-10-03T08:00:01.999872","MEAN_MOTION":15.20823393,"ECCENTRICITY":0.00018364,"INCLINATION":97.6035,"RA_OF_ASC_NODE":327.4477,"ARG_OF_PERICENTER":69.6224,"MEAN_ANOMALY":26.09,"EPHEMERIS_TYPE":0,"CLASSIFICATION_TYPE":"U","NORAD_CAT_ID":65287,"ELEMENT_SET_NO":999,"REV_AT_EPOCH":595,"BSTAR":-0.095739977,"MEAN_MOTION_DOT":-0.01914593,"MEAN_MOTION_DDOT":0},{"OBJECT_NAME":"STARLINK-35018","OBJECT_ID":"2025-184R","EPOCH":"2025-10-03T08:00:01.999872","MEAN_MOTION":15.20307295,"ECCENTRICITY":0.00015183,"INCLINATION":97.6044,"RA_OF_ASC_NODE":327.5212,"ARG_OF_PERICENTER":89.5463,"MEAN_ANOMALY":174.3813,"EPHEMERIS_TYPE":0,"CLASSIFICATION_TYPE":"U","NORAD_CAT_ID":65288,"ELEMENT_SET_NO":999,"REV_AT_EPOCH":595,"BSTAR":-0.097095518,"MEAN_MOTION_DOT":-0.01912624,"MEAN_MOTION_DDOT":0},{"OBJECT_NAME":"STARLINK-34845","OBJECT_ID":"2025-184S","EPOCH":"2025-10-03T08:00:01.999872","MEAN_MOTION":15.31329746,"ECCENTRICITY":0.00014991,"INCLINATION":97.604,"RA_OF_ASC_NODE":327.4564,"ARG_OF_PERICENTER":68.67,"MEAN_ANOMALY":44.9385,"EPHEMERIS_TYPE":0,"CLASSIFICATION_TYPE":"U","NORAD_CAT_ID":65289,"ELEMENT_SET_NO":999,"REV_AT_EPOCH":585,"BSTAR":-0.057329362,"MEAN_MOTION_DOT":-0.01580074,"MEAN_MOTION_DDOT":0},{"OBJECT_NAME":"STARLINK-34984","OBJECT_ID":"2025-184T","EPOCH":"2025-10-03T08:00:01.999872","MEAN_MOTION":15.20478285,"ECCENTRICITY":0.00019243,"INCLINATION":97.6043,"RA_OF_ASC_NODE":327.5098,"ARG_OF_PERICENTER":94.4002,"MEAN_ANOMALY":142.6767,"EPHEMERIS_TYPE":0,"CLASSIFICATION_TYPE":"U","NORAD_CAT_ID":65290,"ELEMENT_SET_NO":999,"REV_AT_EPOCH":595,"BSTAR":-0.097103906,"MEAN_MOTION_DOT":-0.01921653,"MEAN_MOTION_DDOT":0},{"OBJECT_NAME":"STARLINK-35002","OBJECT_ID":"2025-184U","EPOCH":"2025-10-03T08:00:01.999872","MEAN_MOTION":15.21062567,"ECCENTRICITY":0.00014713,"INCLINATION":97.6201,"RA_OF_ASC_NODE":327.4231,"ARG_OF_PERICENTER":62.488,"MEAN_ANOMALY":346.1274,"EPHEMERIS_TYPE":0,"CLASSIFICATION_TYPE":"U","NORAD_CAT_ID":65291,"ELEMENT_SET_NO":999,"REV_AT_EPOCH":590,"BSTAR":-0.085349449,"MEAN_MOTION_DOT":-0.01709995,"MEAN_MOTION_DDOT":0},{"OBJECT_NAME":"STARLINK-35017","OBJECT_ID":"2025-184V","EPOCH":"2025-10-03T08:00:01.999872","MEAN_MOTION":15.31317501,"ECCENTRICITY":0.00016447,"INCLINATION":97.603,"RA_OF_ASC_NODE":327.4671,"ARG_OF_PERICENTER":66.2112,"MEAN_ANOMALY":73.2637,"EPHEMERIS_TYPE":0,"CLASSIFICATION_TYPE":"U","NORAD_CAT_ID":65292,"ELEMENT_SET_NO":999,"REV_AT_EPOCH":595,"BSTAR":-0.057649091,"MEAN_MOTION_DOT":-0.01587618,"MEAN_MOTION_DDOT":0},{"OBJECT_NAME":"STARLINK-34951","OBJECT_ID":"2025-184W","EPOCH":"2025-10-03T08:00:01.999872","MEAN_MOTION":15.21461809,"ECCENTRICITY":0.00021621,"INCLINATION":97.6043,"RA_OF_ASC_NODE":327.4876,"ARG_OF_PERICENTER":89.4228,"MEAN_ANOMALY":98.1255,"EPHEMERIS_TYPE":0,"CLASSIFICATION_TYPE":"U","NORAD_CAT_ID":65293,"ELEMENT_SET_NO":999,"REV_AT_EPOCH":595,"BSTAR":-0.094079776,"MEAN_MOTION_DOT":-0.01916945,"MEAN_MOTION_DDOT":0},{"OBJECT_NAME":"STARLINK-34613","OBJECT_ID":"2025-184X","EPOCH":"2025-10-03T08:00:01.999872","MEAN_MOTION":15.20925506,"ECCENTRICITY":0.00019573,"INCLINATION":97.6039,"RA_OF_ASC_NODE":327.4539,"ARG_OF_PERICENTER":70.9651,"MEAN_ANOMALY":38.7775,"EPHEMERIS_TYPE":0,"CLASSIFICATION_TYPE":"U","NORAD_CAT_ID":65294,"ELEMENT_SET_NO":999,"REV_AT_EPOCH":595,"BSTAR":-0.095034287,"MEAN_MOTION_DOT":-0.01906993,"MEAN_MOTION_DDOT":0},{"OBJECT_NAME":"STARLINK-34834","OBJECT_ID":"2025-184Y","EPOCH":"2025-10-03T08:00:01.999872","MEAN_MOTION":15.13488626,"ECCENTRICITY":0.00017231,"INCLINATION":97.6182,"RA_OF_ASC_NODE":327.4561,"ARG_OF_PERICENTER":86.8139,"MEAN_ANOMALY":34.81,"EPHEMERIS_TYPE":0,"CLASSIFICATION_TYPE":"U","NORAD_CAT_ID":65295,"ELEMENT_SET_NO":999,"REV_AT_EPOCH":585,"BSTAR":-0.10619937,"MEAN_MOTION_DOT":-0.01736257,"MEAN_MOTION_DDOT":0},{"OBJECT_NAME":"STARLINK-34872","OBJECT_ID":"2025-184Z","EPOCH":"2025-10-03T08:00:01.999872","MEAN_MOTION":15.21727107,"ECCENTRICITY":0.00019833,"INCLINATION":97.6044,"RA_OF_ASC_NODE":327.4411,"ARG_OF_PERICENTER":66.0593,"MEAN_ANOMALY":14.2978,"EPHEMERIS_TYPE":0,"CLASSIFICATION_TYPE":"U","NORAD_CAT_ID":65296,"ELEMENT_SET_NO":999,"REV_AT_EPOCH":590,"BSTAR":-0.093328291,"MEAN_MOTION_DOT":-0.01916525,"MEAN_MOTION_DDOT":0},{"OBJECT_NAME":"STARLINK-34899","OBJECT_ID":"2025-189A","EPOCH":"2025-10-03T05:34:28.298208","MEAN_MOTION":15.49320893,"ECCENTRICITY":0.00021983,"INCLINATION":53.1589,"RA_OF_ASC_NODE":219.9218,"ARG_OF_PERICENTER":57.1158,"MEAN_ANOMALY":303.0062,"EPHEMERIS_TYPE":0,"CLASSIFICATION_TYPE":"U","NORAD_CAT_ID":65323,"ELEMENT_SET_NO":999,"REV_AT_EPOCH":697,"BSTAR":0.00241063,"MEAN_MOTION_DOT":0.0013604,"MEAN_MOTION_DDOT":0},{"OBJECT_NAME":"STARLINK-34196","OBJECT_ID":"2025-189B","EPOCH":"2025-10-03T03:41:03.846336","MEAN_MOTION":15.39600023,"ECCENTRICITY":0.00010514,"INCLINATION":53.1596,"RA_OF_ASC_NODE":220.8682,"ARG_OF_PERICENTER":92.1615,"MEAN_ANOMALY":267.951,"EPHEMERIS_TYPE":0,"CLASSIFICATION_TYPE":"U","NORAD_CAT_ID":65324,"ELEMENT_SET_NO":999,"REV_AT_EPOCH":690,"BSTAR":0.0016185433,"MEAN_MOTION_DOT":0.0006485,"MEAN_MOTION_DDOT":0},{"OBJECT_NAME":"STARLINK-34911","OBJECT_ID":"2025-189C","EPOCH":"2025-10-03T01:20:54.724416","MEAN_MOTION":15.39615939,"ECCENTRICITY":0.00011267,"INCLINATION":53.1595,"RA_OF_ASC_NODE":221.6869,"ARG_OF_PERICENTER":42.4662,"MEAN_ANOMALY":317.643,"EPHEMERIS_TYPE":0,"CLASSIFICATION_TYPE":"U","NORAD_CAT_ID":65325,"ELEMENT_SET_NO":999,"REV_AT_EPOCH":693,"BSTAR":0.0026322024,"MEAN_MOTION_DOT":0.00106352,"MEAN_MOTION_DDOT":0},{"OBJECT_NAME":"STARLINK-34902","OBJECT_ID":"2025-189D","EPOCH":"2025-10-03T05:47:58.618752","MEAN_MOTION":15.3960732,"ECCENTRICITY":0.00015887,"INCLINATION":53.161,"RA_OF_ASC_NODE":220.7102,"ARG_OF_PERICENTER":61.0039,"MEAN_ANOMALY":299.1125,"EPHEMERIS_TYPE":0,"CLASSIFICATION_TYPE":"U","NORAD_CAT_ID":65326,"ELEMENT_SET_NO":999,"REV_AT_EPOCH":696,"BSTAR":0.0028264103,"MEAN_MOTION_DOT":0.00114317,"MEAN_MOTION_DDOT":0}]
