STARLINK-34995          
1 65285U 25184N   25276.33335648 -.01922319  00000+0 -94000-1 0  9995
2 65285  97.6043 327.4738 0002212  86.0140  69.8516 15.21594618  5953
STARLINK-35048          
1 65286U 25184P   25276.33335648 -.01924739  00000+0 -93932-1 0  9997
2 65286  97.6045 327.4944 0002131  89.1419 113.9681 15.21666940  5950
STARLINK-35007          
1 65287U 25184Q   25276.33335648 -.01914593  00000+0 -95740-1 0  9994
2 65287  97.6035 327.4477 0001836  69.6224  26.0900 15.20823393  5953
STARLINK-35018          
1 65288U 25184R   25276.33335648 -.01912624  00000+0 -97096-1 0  9994
2 65288  97.6044 327.5212 0001518  89.5463 174.3813 15.20307295  5953
STARLINK-34845          
1 65289U 25184S   25276.33335648 -.01580074  00000+0 -57329-1 0  9990
2 65289  97.6040 327.4564 0001499  68.6700  44.9385 15.31329746  5851
STARLINK-34984          
1 65290U 25184T   25276.33335648 -.01921653  00000+0 -97104-1 0  9999
2 65290  97.6043 327.5098 0001924  94.4002 142.6767 15.20478285  5956
STARLINK-35002          
1 65291U 25184U   25276.33335648 -.01709995  00000+0 -85349-1 0  9991
2 65291  97.6201 327.4231 0001471  62.4880 346.1274 15.21062567  5909
STARLINK-35017          
1 65292U 25184V   25276.33335648 -.01587618  00000+0 -57649-1 0  9990
2 65292  97.6030 327.4671 0001644  66.2112  73.2637 15.31317501  5958
STARLINK-34951          
1 65293U 25184W   25276.33335648 -.01916945  00000+0 -94080-1 0  9990
2 65293  97.6043 327.4876 0002162  89.4228  98.1255 15.21461809  5953
STARLINK-34613          
1 65294U 25184X   25276.33335648 -.01906993  00000+0 -95034-1 0  9993
2 65294  97.6039 327.4539 0001957  70.9651  38.7775 15.20925506  5956
STARLINK-34834          
1 65295U 25184Y   25276.33335648 -.01736257  00000+0 -10620+0 0  9994
2 65295  97.6182 327.4561 0001723  86.8139  34.8100 15.13488626  5856
STARLINK-34872          
1 65296U 25184Z   25276.33335648 -.01916525  00000+0 -93328-1 0  9991
2 65296  97.6044 327.4411 0001983  66.0593  14.2978 15.21727107  5900
STARLINK-34899          
1 65323U 25189A   25276.23227197  .00136040  00000+0  24106-2 0  9997
2 65323  53.1589 219.9218 0002198  57.1158 303.0062 15.49320893  6971
STARLINK-34196          
1 65324U 25189B   25276.15351674  .00064850  00000+0  16185-2 0  9994
2 65324  53.1596 220.8682 0001051  92.1615 267.9510 15.39600023  6904
STARLINK-34911          
1 65325U 25189C   25276.05618894  .00106352  00000+0  26322-2 0  9992
2 65325  53.1595 221.6869 0001126  42.4662 317.6430 15.39615939  6932
STARLINK-34902          
1 65326U 25189D   25276.24165068  .00114317  00000+0  28264-2 0  9991
2 65326  53.1610 220.7102 0001588  61.0039 299.1125 15.39607320  6961
